SAUDISAT 1C (SO-50)     
1 27607U 02058C   26179.48384614  .00000884  00000+0  12164-3 0  9996
2 27607  64.5520  94.0340 0074995 260.3690  98.8938 14.83069301266134
SAUDISAT 2              
1 28371U 04025F   26179.56873367  .00000232  00000+0  62875-4 0  9990
2 28371  98.5509 179.8448 0023436 261.4269  98.4272 14.56689916167403
SAUDISAT 3              
1 31118U 07012B   26179.41103199  .00000234  00000+0  45921-4 0  9990
2 31118  98.1459 129.8191 0014386 186.5616 173.5404 14.71431583 29392
PISAT                   
1 41784U 16059B   26179.58738004  .00000884  00000+0  15793-3 0  9992
2 41784  97.8180 179.5503 0029356 166.1785 194.0232 14.69002000521414
FLYING LAPTOP           
1 42831U 17042G   26179.58372714  .00003405  00000+0  26861-3 0  9991
2 42831  97.4730 334.6810 0019970  85.2696 275.0809 15.01217521488160
SALSAT                  
1 46495U 20068K   26179.59166665  .00006710  00000+0  23412-3 0  9991
2 46495  97.8846 183.3517 0007859 259.1040 100.9315 15.29955960317102
